{"type": "FeatureCollection", "features": [ {"type": "Feature", "properties": {"norad_id": 58655, "name": "BEIDOU-3 M26 (C48)", "group": "beidou", "lat": 40.47666040088427, "lon": 104.53926346541257, "alt_km": 21532.476634672206, "timestamp": "2025-12-06T22:38:42.994027+00:00", "meta": {"OBJECT_NAME": "BEIDOU-3 M26 (C48)", "OBJECT_ID": "2023-207B", "EPOCH": "2025-12-06T07:54:02.857536", "MEAN_MOTION": 1.862311, "ECCENTRICITY": 0.00035756, "INCLINATION": 55.5812, "RA_OF_ASC_NODE": 68.8049, "ARG_OF_PERICENTER": 252.6761, "MEAN_ANOMALY": 107.299, "EPHEMERIS_TYPE": 0, "CLASSIFICATION_TYPE": "U", "NORAD_CAT_ID": 58655, "ELEMENT_SET_NO": 999, "REV_AT_EPOCH": 1323, "BSTAR": 0, "MEAN_MOTION_DOT": -4.8e-07, "MEAN_MOTION_DDOT": 0}, "tle": {"line1": "1 58655U 23207B   25340.32919974 -.00000048  00000+0  00000+0 0  9992", "line2": "2 58655  55.5812  68.8049 0003575 252.6761 107.2990  1.86231100 13230"}}, "geometry": {"type": "Point", "coordinates": [104.53926346541257, 40.47666040088427]}}, {"type": "Feature", "properties": {"norad_id": 61186, "name": "BEIDOU-3 M25 (C47)", "group": "beidou", "lat": 9.111831228384064, "lon": 122.36482437796403, "alt_km": 21536.264033776646, "timestamp": "2025-12-06T22:38:42.994038+00:00", "meta": {"OBJECT_NAME": "BEIDOU-3 M25 (C47)", "OBJECT_ID": "2024-168B", "EPOCH": "2025-12-06T03:42:38.696256", "MEAN_MOTION": 1.86229727, "ECCENTRICITY": 0.0005472, "INCLINATION": 54.6479, "RA_OF_ASC_NODE": 308.9479, "ARG_OF_PERICENTER": 294.8981, "MEAN_ANOMALY": 64.9511, "EPHEMERIS_TYPE": 0, "CLASSIFICATION_TYPE": "U", "NORAD_CAT_ID": 61186, "ELEMENT_SET_NO": 999, "REV_AT_EPOCH": 818, "BSTAR": 0, "MEAN_MOTION_DOT": -7.1e-07, "MEAN_MOTION_DDOT": 0}, "tle": {"line1": "1 61186U 24168B   25340.15461454 -.00000071  00000+0  00000+0 0  9994", "line2": "2 61186  54.6479 308.9479 0005472 294.8981  64.9511  1.86229727  8185"}}, "geometry": {"type": "Point", "coordinates": [122.36482437796403, 9.111831228384064]}}, {"type": "Feature", "properties": {"norad_id": 61187, "name": "BEIDOU-3 M27 (C49)", "group": "beidou", "lat": -42.699927236404, "lon": -92.0200017224131, "alt_km": 21527.501700264424, "timestamp": "2025-12-06T22:38:42.994050+00:00", "meta": {"OBJECT_NAME": "BEIDOU-3 M27 (C49)", "OBJECT_ID": "2024-168C", "EPOCH": "2025-12-06T00:40:37.892640", "MEAN_MOTION": 1.86229869, "ECCENTRICITY": 0.00022747, "INCLINATION": 54.6434, "RA_OF_ASC_NODE": 308.936, "ARG_OF_PERICENTER": 331.2531, "MEAN_ANOMALY": 78.7916, "EPHEMERIS_TYPE": 0, "CLASSIFICATION_TYPE": "U", "NORAD_CAT_ID": 61187, "ELEMENT_SET_NO": 999, "REV_AT_EPOCH": 566, "BSTAR": 0, "MEAN_MOTION_DOT": -7.1e-07, "MEAN_MOTION_DDOT": 0}, "tle": {"line1": "1 61187U 24168C   25340.02821635 -.00000071  00000+0  00000+0 0  9992", "line2": "2 61187  54.6434 308.9360 0002274 331.2531  78.7916  1.86229869  5669"}}, "geometry": {"type": "Point", "coordinates": [-92.0200017224131, -42.699927236404]}}]}